[{"OBJECT_NAME":"SENTINEL-2C","OBJECT_ID":"2024-157A","EPOCH":"2026-03-09T19:14:47.154624","MEAN_MOTION":14.30814287,"ECCENTRICITY":7.601e-5,"INCLINATION":98.5688,"RA_OF_ASC_NODE":145.0121,"ARG_OF_PERICENTER":103.4918,"MEAN_ANOMALY":256.635,"EPHEMERIS_TYPE":0,"CLASSIFICATION_TYPE":"U","NORAD_CAT_ID":60989,"ELEMENT_SET_NO":999,"REV_AT_EPOCH":7877,"BSTAR":7.7072514e-5,"MEAN_MOTION_DOT":1.58e-6,"MEAN_MOTION_DDOT":0},{"OBJECT_NAME":"CZ-6A DEB","OBJECT_ID":"2024-140JT","EPOCH":"2026-03-09T15:42:04.465440","MEAN_MOTION":14.34751146,"ECCENTRICITY":0.0015959,"INCLINATION":89.4181,"RA_OF_ASC_NODE":313.2457,"ARG_OF_PERICENTER":332.4335,"MEAN_ANOMALY":27.6016,"EPHEMERIS_TYPE":0,"CLASSIFICATION_TYPE":"U","NORAD_CAT_ID":60864,"ELEMENT_SET_NO":999,"REV_AT_EPOCH":8121,"BSTAR":0.00075797,"MEAN_MOTION_DOT":2.163e-5,"MEAN_MOTION_DDOT":0}]
